DRAGON CRS-27           
1 55860U 23033A   23102.51130243  .00014126  00000+0  25742-3 0  9998
2 55860  51.6393 293.9922 0006427 184.4136 280.1678 15.49721005391600
SHIYAN 19 (SY-19)       
1 55861U 23034A   23103.77247457  .00007434  00000+0  33969-3 0  9999
2 55861  97.4652 291.8525 0014681 171.0491 317.0280 15.20764045  4442
2023-035A               
1 55908U 23035A   23103.34674634  .00004551  00000+0  48489-3 0  9996
2 55908  44.1803 169.4898 0004036 313.4306  46.6213 14.90014753  4085
CAPELLA-10-WHITNEY      
1 55909U 23035B   23102.26112546  .00003828  00000+0  40022-3 0  9997
2 55909  44.0019 175.2253 0003338 356.7723   3.3109 14.91082466  3924
CAPELLA-9-WHITNEY       
1 55910U 23035C   23104.54145918  .00005363  00000+0  55453-3 0  9991
2 55910  44.0007 163.2895 0003681  18.1292 341.9692 14.90952227  4269
GAOFEN 13-02            
1 55912U 23036A   23101.83243884 -.00000234  00000+0  00000+0 0  9991
2 55912   3.0048 300.8822 0002010 300.9163  44.3107  1.00268794   430
CZ-3B R/B               
1 55913U 23036B   23103.12649171  .00055549  57556-6  89625-3 0  9992
2 55913  28.3880 289.6330 7211189 196.0358 115.7188  2.42090342   654
STARLINK-5856           
1 55914U 23037A   23103.50001157 -.00920774  00000+0 -99943-2 0  9993
2 55914  69.9999 105.9468 0003592 275.5795 143.8236 15.65668242  1305
STARLINK-5859           
1 55915U 23037B   23103.50001157 -.00920389  00000+0 -99783-2 0  9998
2 55915  69.9993 105.9458 0003584 274.1243 147.8861 15.65696760  1307
STARLINK-5796           
1 55916U 23037C   23103.91667824 -.00896218  00000+0 -10026-1 0  9998
2 55916  69.9998 104.7837 0003596 264.7934 342.4332 15.64850503  4794
STARLINK-5855           
1 55917U 23037D   23103.91667824 -.00895861  00000+0 -10016-1 0  9991
2 55917  69.9998 104.7818 0003599 264.3585 344.1929 15.64864571  4796
STARLINK-5867           
1 55918U 23037E   23103.91667824 -.00893991  00000+0 -99967-2 0  9997
2 55918  69.9999 104.7820 0003594 264.2929 343.5946 15.64855707  4790
STARLINK-5871           
1 55919U 23037F   23103.91667824 -.00893946  00000+0 -99875-2 0  9996
2 55919  70.0001 104.7789 0003605 264.0333 345.8415 15.64877288  4796
STARLINK-5862           
1 55920U 23037G   23104.37710774  .00001542  00000+0  14593-4 0  9999
2 55920  69.9989 103.4519 0003470 270.0438  90.0360 15.69927643  4862
STARLINK-5861           
1 55921U 23037H   23103.91667824 -.00901029  00000+0 -10063-1 0  9992
2 55921  69.9996 104.7783 0003588 263.7409 348.1201 15.64904964  4794
STARLINK-5863           
1 55922U 23037J   23103.91667824 -.00893906  00000+0 -99813-2 0  9998
2 55922  70.0001 104.7774 0003602 264.2000 346.9993 15.64891639  4793
STARLINK-5854           
1 55923U 23037K   23104.25001157 -.00905528  00000+0 -10395-1 0  9999
2 55923  70.0000 103.8493 0003686 270.7339  56.7180 15.64225469  4842
STARLINK-5849           
1 55924U 23037L   23103.42094350 -.00000268  00000+0 -46708-6 0  9994
2 55924  70.0000 106.1379 0002839 254.5463 105.5420 15.69912604  4376
STARLINK-5922           
1 55925U 23037M   23103.50001157 -.00920149  00000+0 -99611-2 0  9993
2 55925  69.9999 105.9400 0003589 274.7733 150.4942 15.65732530  1302
STARLINK-5921           
1 55926U 23037N   23103.42104789 -.00000671  00000+0 -38206-5 0  9995
2 55926  70.0007 106.1371 0002671 274.3824  85.7067 15.69914401  4375
STARLINK-5919           
1 55927U 23037P   23103.50001157 -.00920029  00000+0 -99568-2 0  9993
2 55927  70.0000 105.9388 0003592 275.0414 150.8772 15.65739671  1307
STARLINK-5930           
1 55928U 23037Q   23103.50001157 -.00923707  00000+0 -99943-2 0  9997
2 55928  70.0003 105.9360 0003583 275.9016 151.3187 15.65755008  1306
STARLINK-5898           
1 55929U 23037R   23103.50001157 -.00923143  00000+0 -99909-2 0  9994
2 55929  70.0000 105.9380 0003543 275.4849 151.0827 15.65747266  1306
STARLINK-5896           
1 55930U 23037S   23104.37657960  .00003491  00000+0  30777-4 0  9994
2 55930  69.9994 103.4476 0003650 271.5003  88.5775 15.69931693  4867
STARLINK-5897           
1 55931U 23037T   23103.16874295 -.00334941  00000+0 -31849-2 0  9991
2 55931  70.0005 106.8638 0004637 293.9696  66.1013 15.67601629  4333
STARLINK-5848           
1 55932U 23037U   23103.73604460  .00002839  00000+0  25373-4 0  9993
2 55932  70.0010 105.2282 0003052 272.9896  87.0951 15.69924105  4766
STARLINK-5852           
1 55933U 23037V   23104.37700024  .00001128  00000+0  11145-4 0  9990
2 55933  69.9989 103.4521 0002952 260.3143  99.7719 15.69930567  4861
STARLINK-5927           
1 55934U 23037W   23103.73878146  .00008565  00000+0  72894-4 0  9991
2 55934  70.0002 105.2385 0003427 268.2927  91.7876 15.69933829  4763
STARLINK-5920           
1 55935U 23037X   23104.37647338  .00002885  00000+0  25743-4 0  9990
2 55935  70.0005 103.4485 0002846 268.5247  91.5622 15.69931880  4863
STARLINK-5882           
1 55936U 23037Y   23103.73615161  .00001086  00000+0  10802-4 0  9991
2 55936  70.0013 105.2278 0003156 274.3662  85.7173 15.69920750  4763
STARLINK-5913           
1 55937U 23037Z   23103.42062561 -.00000451  00000+0 -19851-5 0  9999
2 55937  69.9995 106.1357 0002904 257.2134 102.8738 15.69914773  4713
STARLINK-5909           
1 55938U 23037AA  23103.42051886  .00001885  00000+0  17446-4 0  9995
2 55938  70.0014 106.1367 0002994 275.1471  84.9383 15.69919969  4710
STARLINK-5918           
1 55939U 23037AB  23103.73888673  .00002244  00000+0  20424-4 0  9992
2 55939  69.9999 105.2374 0003007 273.7602  86.3250 15.69928384  4769
STARLINK-5864           
1 55940U 23037AC  23103.42041106  .00002054  00000+0  18846-4 0  9996
2 55940  70.0024 106.1345 0003199 274.5006  85.5824 15.69921900  4372
STARLINK-5914           
1 55941U 23037AD  23104.37689602  .00001049  00000+0  10492-4 0  9993
2 55941  69.9991 103.4504 0003401 268.5305  91.5501 15.69929717  4868
STARLINK-5917           
1 55942U 23037AE  23104.37542791 -.00007107  00000+0 -57424-4 0  9990
2 55942  70.0018 103.4462 0002987 257.1764 102.9098 15.69911022  4864
STARLINK-5932           
1 55943U 23037AF  23103.73846665  .00001975  00000+0  18188-4 0  9996
2 55943  70.0007 105.2378 0002753 277.1226  82.9656 15.69930157  4761
STARLINK-5926           
1 55944U 23037AG  23103.41978045  .00005759  00000+0  49631-4 0  9991
2 55944  70.0015 106.1313 0002351 276.2948  83.7980 15.69926609  4378
STARLINK-5925           
1 55945U 23037AH  23103.42009776  .00004647  00000+0  40403-4 0  9992
2 55945  70.0013 106.1335 0003191 275.9047  84.1785 15.69917209  4374
STARLINK-5857           
1 55946U 23037AJ  23103.42001205 -.00000863  00000+0 -54217-5 0  9999
2 55946  70.0000 106.1340 0002236 284.6787  75.4160 15.69897453  4710
STARLINK-5851           
1 55947U 23037AK  23103.41957348 -.00000159  00000+0  44171-6 0  9993
2 55947  70.0002 106.1295 0002472 275.9212  84.1701 15.69913824  4371
STARLINK-5900           
1 55948U 23037AL  23103.73762548  .00002152  00000+0  19660-4 0  9992
2 55948  70.0023 105.2333 0002802 277.9060  82.1818 15.69926724  4761
STARLINK-5899           
1 55949U 23037AM  23103.73783372  .00001793  00000+0  16679-4 0  9998
2 55949  70.0008 105.2323 0003648 269.0166  91.0612 15.69925223  4766
STARLINK-5911           
1 55950U 23037AN  23103.73741372  .00004657  00000+0  40472-4 0  9994
2 55950  70.0007 105.2331 0002995 273.2445  86.8408 15.69929963  4767
STARLINK-5908           
1 55951U 23037AP  23103.73804553  .00002111  00000+0  19319-4 0  9995
2 55951  70.0016 105.2343 0002926 272.7061  87.3799 15.69927939  4763
STARLINK-5893           
1 55952U 23037AQ  23103.73773056  .00003172  00000+0  28137-4 0  9995
2 55952  70.0019 105.2337 0002977 276.1569  83.9287 15.69926417  4761
STARLINK-5889           
1 55953U 23037AR  23103.73794052  .00000990  00000+0  10001-4 0  9991
2 55953  69.9995 105.2338 0003534 267.2825  92.7967 15.69923854  4764
STARLINK-5892           
1 55954U 23037AS  23103.73667640  .00003255  00000+0  28826-4 0  9995
2 55954  70.0015 105.2281 0002898 273.8588  86.2277 15.69924414  4764
STARLINK-5878           
1 55955U 23037AT  23103.73720376  .00001451  00000+0  13835-4 0  9992
2 55955  70.0009 105.2320 0003106 274.2778  85.8063 15.69924530  4768
STARLINK-5883           
1 55956U 23037AU  23104.37364972 -.00014646  00000+0 -12051-3 0  9990
2 55956  70.0015 103.4383 0002873 257.5351 102.5523 15.69874295  4867
STARLINK-5884           
1 55957U 23037AV  23104.37446994  .00002026  00000+0  18605-4 0  9995
2 55957  70.0028 103.4432 0002892 247.2297 112.8593 15.69934464  4869
STARLINK-5928           
1 55958U 23037AW  23104.37427722 -.00009353  00000+0 -76194-4 0  9993
2 55958  70.0014 103.4407 0002691 269.4637  90.6250 15.69897669  4866
STARLINK-5929           
1 55959U 23037AX  23103.41840987  .00004133  00000+0  36122-4 0  9996
2 55959  70.0026 106.1273 0002817 271.2406  88.8467 15.69927920  4375
STARLINK-5938           
1 55960U 23037AY  23103.73625793  .00000524  00000+0  61258-5 0  9998
2 55960  70.0009 105.2272 0002805 273.3657  86.7218 15.69920289  4760
STARLINK-5933           
1 55961U 23037AZ  23103.41798913 -.00000391  00000+0 -14858-5 0  9997
2 55961  69.9998 106.1218 0003199 268.0654  92.0175 15.69915625  4377
STARLINK-5906           
1 55962U 23037BA  23104.37394453  .00011138  00000+0  94191-4 0  9991
2 55962  70.0013 103.4380 0003461 280.6782  79.4024 15.69945873  4867
STARLINK-5924           
1 55963U 23037BB  23103.73688345  .00001522  00000+0  14426-4 0  9996
2 55963  70.0002 105.2292 0003222 269.4345  90.6482 15.69927253  4767
STARLINK-5895           
1 55964U 23037BC  23103.73751728  .00001537  00000+0  14551-4 0  9998
2 55964  70.0005 105.2301 0003589 269.3440  90.7345 15.69925195  4765
STARLINK-5894           
1 55965U 23037BD  23103.73636339  .00000221  00000+0  36053-5 0  9990
2 55965  70.0013 105.2286 0002649 270.7163  89.3729 15.69921838  4761
